{
    "week": 287,
    "satellites": [
        {
            "Name": "GSAT0226 (GALILEO 31)",
            "Line1": "1 61183U 24167B   24284.44637801  .00000024  00000+0  00000+0 0  9996",
            "Line2": "2 61183  55.4030 238.1914 0032716  98.1120 262.2434  1.71381557   388",
            "SatelliteNumber": "61183",
            "Classification": "U",
            "LaunchYear": "24",
            "LaunchNumber": "167",
            "PieceOfLaunch": "B",
            "EpochYear": "24",
            "EpochDay": 284.44637801,
            "FirstDerivativeMeanMotion": 2.4e-07,
            "SecondDerivativeMeanMotion": "00000+0",
            "BSTAR": "00000+0",
            "SetNumber": "999",
            "Inclination": 55.403,
            "RAAN": 238.1914,
            "Eccentricity": 0.0032716,
            "ArgumentOfPerigee": 98.112,
            "MeanAnomaly": 262.2434,
            "MeanMotion": 1.71381557,
            "RevolutionNumber": "38"
        }
    ]
}